FLOCK 4H-10             
1 66713U 25276AZ  26068.76176108  .00008509  00000+0  41463-3 0  9995
2 66713  97.4259 143.9692 0004304   8.4136 351.7170 15.18574346 15327
FLOCK 4H-35             
1 66738U 25276CA  26068.43505598  .00008562  00000+0  40654-3 0  9995
2 66738  97.4266 143.8032 0000476 262.5938  97.5242 15.19480603 14572
